NORAD_CAT_ID,OBJECT_NAME,OBJECT_TYPE,EPOCH,MEAN_MOTION,ECCENTRICITY,INCLINATION,RA_OF_ASC_NODE,ARG_OF_PERICENTER,MEAN_ANOMALY,BSTAR,MEAN_MOTION_DOT,MEAN_MOTION_DDOT,TLE_LINE0,TLE_LINE1,TLE_LINE2,SEMIMAJOR_AXIS,PERIOD,APOGEE,PERIGEE,DECAYED
53007.0,STARLINK-4215,PAYLOAD,2024-01-15 04:06:50,15.08838604,0.0001543,53.2191,15.9615,100.4503,259.6663,0.00012316,1.673e-05,0.0,0 STARLINK-4215,1 53007U 22076X   24015.17142350  .00001673  00000-0  12316-3 0  9990,2 53007  53.2191  15.9615 0001543 100.4503 259.6663 15.08838604 84889,6917.885,95.438,540.817,538.682,0.0
53007.0,STARLINK-4215,PAYLOAD,2024-01-15 08:53:00,15.08848544,0.0001563,53.2169,15.0669,95.3956,264.7214,0.00023643,3.478e-05,0.0,0 STARLINK-4215,1 53007U 22076X   24015.37014057  .00003478  00000-0  23643-3 0  9994,2 53007  53.2169  15.0669 0001563  95.3956 264.7214 15.08848544 84445,6917.854,95.437,540.801,538.638,0.0
53007.0,STARLINK-4215,PAYLOAD,2024-01-16 08:43:47,15.08843634,0.0001614,53.2183,10.6023,104.2204,255.8967,2.5572e-05,1.19e-06,0.0,0 STARLINK-4215,1 53007U 22076X   24016.36374174  .00000119  00000-0  25572-4 0  9996,2 53007  53.2183  10.6023 0001614 104.2204 255.8967 15.08843634 85069,6917.869,95.437,540.851,538.618,0.0
53007.0,STARLINK-4215,PAYLOAD,2024-01-17 06:59:11,15.08846515,0.0001779,53.2177,6.446,72.2266,287.892,9.8814e-05,1.285e-05,0.0,0 STARLINK-4215,1 53007U 22076X   24017.29110211  .00001285  00000-0  98814-4 0  9993,2 53007  53.2177   6.4460 0001779  72.2266 287.8920 15.08846515 84732,6917.86,95.437,540.956,538.495,0.0
53007.0,STARLINK-4215,PAYLOAD,2024-01-18 03:39:12,15.08841475,0.0001589,53.2189,2.5763,104.1817,255.9352,1.6787e-05,-2.1e-07,0.0,0 STARLINK-4215,1 53007U 22076X   24018.15222515 -.00000021  00000-0  16787-4 0  9997,2 53007  53.2189   2.5763 0001589 104.1817 255.9352 15.08841475 85336,6917.876,95.437,540.84,538.642,0.0
53007.0,STARLINK-4215,PAYLOAD,2024-01-18 08:25:21,15.08846461,0.0001554,53.2175,1.6811,103.5917,256.5249,8.2674e-05,1.028e-05,0.0,0 STARLINK-4215,1 53007U 22076X   24018.35094156  .00001028  00000-0  82674-4 0  9992,2 53007  53.2175   1.6811 0001554 103.5917 256.5249 15.08846461 84893,6917.861,95.437,540.801,538.651,0.0
53007.0,STARLINK-4215,PAYLOAD,2024-01-18 21:08:26,15.08844503,0.0001497,53.2175,359.2986,99.8842,260.2319,2.5275e-05,1.14e-06,0.0,0 STARLINK-4215,1 53007U 22076X   24018.88086378  .00000114  00000-0  25275-4 0  9996,2 53007  53.2175 359.2986 0001497  99.8842 260.2319 15.08844503 84972,6917.867,95.437,540.767,538.696,0.0
53007.0,STARLINK-4215,PAYLOAD,2024-01-19 03:29:58,15.08857437,0.0001738,53.2182,358.109,123.5141,236.6018,-0.00013475,-2.433e-05,0.0,0 STARLINK-4215,1 53007U 22076X   24019.14581542 -.00002433  00000-0 -13475-3 0  9995,2 53007  53.2182 358.1090 0001738 123.5141 236.6018 15.08857437 85489,6917.827,95.436,540.894,538.49,0.0
53007.0,STARLINK-4215,PAYLOAD,2024-01-19 08:16:08,15.08852565,0.0001574,53.2175,357.2216,93.0426,267.0746,0.00016689,2.37e-05,0.0,0 STARLINK-4215,1 53007U 22076X   24019.34453824  .00002370  00000-0  16689-3 0  9996,2 53007  53.2175 357.2216 0001574  93.0426 267.0746 15.08852565 85041,6917.842,95.437,540.796,538.618,0.0
53007.0,STARLINK-4215,PAYLOAD,2024-01-19 22:34:37,15.08837738,0.0001537,53.2172,354.5397,110.9819,249.1338,4.1864e-05,3.78e-06,0.0,0 STARLINK-4215,1 53007U 22076X   24019.94070612  .00000378  00000-0  41864-4 0  9992,2 53007  53.2172 354.5397 0001537 110.9819 249.1338 15.08837738 85135,6917.887,95.438,540.816,538.689,0.0
53007.0,STARLINK-4215,PAYLOAD,2024-01-20 03:20:46,15.08841055,0.0001396,53.2169,353.656,99.8994,260.2156,9.0817e-05,1.158e-05,0.0,0 STARLINK-4215,1 53007U 22076X   24020.13942542  .00001158  00000-0  90817-4 0  9994,2 53007  53.2169 353.6560 0001396  99.8994 260.2156 15.08841055 85639,6917.877,95.437,540.708,538.776,0.0
53007.0,STARLINK-4215,PAYLOAD,2024-01-20 04:56:09,15.08843186,0.0001473,53.217,353.354,96.3242,263.7918,0.00011687,1.573e-05,0.0,0 STARLINK-4215,1 53007U 22076X   24020.20566436  .00001573  00000-0  11687-3 0  9994,2 53007  53.2170 353.3540 0001473  96.3242 263.7918 15.08843186 85170,6917.871,95.437,540.755,538.717,0.0
53007.0,STARLINK-4215,PAYLOAD,2024-01-20 22:25:24,15.08836522,0.0001474,53.2165,350.0856,105.4669,254.6486,2.0718e-05,4.2e-07,0.0,0 STARLINK-4215,1 53007U 22076X   24020.93430825  .00000042  00000-0  20718-4 0  9992,2 53007  53.2165 350.0856 0001474 105.4669 254.6486 15.08836522 85281,6917.891,95.438,540.776,538.736,0.0
53007.0,STARLINK-4215,PAYLOAD,2024-01-21 04:46:56,15.08842457,0.0001457,53.2169,348.8961,99.5969,260.5188,0.00011122,1.483e-05,0.0,0 STARLINK-4215,1 53007U 22076X   24021.19926622  .00001483  00000-0  11122-3 0  9994,2 53007  53.2169 348.8961 0001457  99.5969 260.5188 15.08842457 85328,6917.873,95.437,540.746,538.73,0.0
53007.0,STARLINK-4215,PAYLOAD,2024-01-21 07:57:42,15.08843359,0.0001457,53.2169,348.3011,99.5802,260.5355,0.00012433,1.691e-05,0.0,0 STARLINK-4215,1 53007U 22076X   24021.33174583  .00001691  00000-0  12433-3 0  9998,2 53007  53.2169 348.3011 0001457  99.5802 260.5355 15.08843359 85817,6917.87,95.437,540.743,538.727,0.0
53007.0,STARLINK-4215,PAYLOAD,2024-01-21 20:40:48,15.0883551,0.0001529,53.2176,345.9229,104.9959,255.1202,7.7986e-05,9.53e-06,0.0,0 STARLINK-4215,1 53007U 22076X   24021.86167016  .00000953  00000-0  77986-4 0  9994,2 53007  53.2176 345.9229 0001529 104.9959 255.1202 15.08835510 85421,6917.894,95.438,540.817,538.701,0.0
53007.0,STARLINK-4215,PAYLOAD,2024-01-22 06:13:06,15.08849315,0.0001467,53.218,344.1416,91.2752,268.8408,0.00019288,2.784e-05,0.0,0 STARLINK-4215,1 53007U 22076X   24022.25910297  .00002784  00000-0  19288-3 0  9999,2 53007  53.2180 344.1416 0001467  91.2752 268.8408 15.08849315 85488,6917.852,95.437,540.732,538.702,0.0
53007.0,STARLINK-4215,PAYLOAD,2024-01-23 02:53:07,15.0884327,0.0001403,53.2172,340.2738,99.8494,260.2656,9.1392e-05,1.167e-05,0.0,0 STARLINK-4215,1 53007U 22076X   24023.12022581  .00001167  00000-0  91392-4 0  9997,2 53007  53.2172 340.2738 0001403  99.8494 260.2656 15.08843270 86082,6917.87,95.437,540.706,538.765,0.0
53007.0,STARLINK-4215,PAYLOAD,2024-01-23 04:28:30,15.08845506,0.0001587,53.2181,339.9771,72.5684,287.5481,0.00013504,1.862e-05,0.0,0 STARLINK-4215,1 53007U 22076X   24023.18646664  .00001862  00000-0  13504-3 0  9997,2 53007  53.2181 339.9771 0001587  72.5684 287.5481 15.08845506 85627,6917.864,95.437,540.826,538.631,0.0
53007.0,STARLINK-4215,PAYLOAD,2024-01-24 04:19:17,15.08847428,0.0001538,53.218,335.5172,80.6951,279.4215,0.000113,1.511e-05,0.0,0 STARLINK-4215,1 53007U 22076X   24024.18006637  .00001511  00000-0  11300-3 0  9991,2 53007  53.2180 335.5172 0001538  80.6951 279.4215 15.08847428 86245,6917.858,95.437,540.787,538.659,0.0
53007.0,STARLINK-4215,PAYLOAD,2024-01-25 02:34:41,15.08852279,0.0001564,53.2187,331.3516,99.318,260.7989,0.00022455,3.289e-05,0.0,0 STARLINK-4215,1 53007U 22076X   24025.10742442  .00003289  00000-0  22455-3 0  9992,2 53007  53.2187 331.3516 0001564  99.3180 260.7989 15.08852279 85912,6917.843,95.437,540.79,538.626,0.0
53007.0,STARLINK-4215,PAYLOAD,2024-01-26 02:25:27,15.08874552,0.0001629,53.2182,326.8995,80.5641,279.5535,0.00050514,7.768e-05,0.0,0 STARLINK-4215,1 53007U 22076X   24026.10101124  .00007768  00000-0  50514-3 0  9992,2 53007  53.2182 326.8995 0001629  80.5641 279.5535 15.08874552 86535,6917.775,95.435,540.767,538.513,0.0
53007.0,STARLINK-4215,PAYLOAD,2024-01-26 19:54:42,15.08844884,0.0002116,53.2185,323.621,140.7283,219.3863,-7.2987e-05,-1.45e-05,0.0,0 STARLINK-4215,1 53007U 22076X   24026.82965784 -.00001450  00000-0 -72987-4 0  9994,2 53007  53.2185 323.6210 0002116 140.7283 219.3863 15.08844884 86649,6917.865,95.437,541.194,538.267,0.0
53007.0,STARLINK-4215,PAYLOAD,2024-01-27 02:16:15,15.08833734,0.0001494,53.2183,322.4315,94.525,265.5913,-0.00015963,-2.827e-05,0.0,0 STARLINK-4215,1 53007U 22076X   24027.09462701 -.00002827  00000-0 -15963-3 0  9994,2 53007  53.2183 322.4315 0001494  94.5250 265.5913 15.08833734 86683,6917.9,95.438,540.798,538.731,0.0
53007.0,STARLINK-4215,PAYLOAD,2024-01-27 19:45:31,15.08808467,0.0001812,53.2179,319.1559,104.001,256.1183,0.00051819,7.962e-05,0.0,0 STARLINK-4215,1 53007U 22076X   24027.82328013  .00007962  00000-0  51819-3 0  9995,2 53007  53.2179 319.1559 0001812 104.0010 256.1183 15.08808467 86798,6917.977,95.44,541.095,538.588,0.0
53007.0,STARLINK-4215,PAYLOAD,2024-01-28 02:07:02,15.0884708,0.0001532,53.2177,317.9703,83.8419,276.2747,-0.00016775,-2.957e-05,0.0,0 STARLINK-4215,1 53007U 22076X   24028.08822465 -.00002957  00000-0 -16775-3 0  9997,2 53007  53.2177 317.9703 0001532  83.8419 276.2747 15.08847080 86837,6917.859,95.437,540.784,538.664,0.0
53007.0,STARLINK-4215,PAYLOAD,2024-01-28 19:36:18,15.08823673,0.0001739,53.2192,314.7048,95.2915,264.8276,0.00018078,2.589e-05,0.0,0 STARLINK-4215,1 53007U 22076X   24028.81688066  .00002589  00000-0  18078-3 0  9992,2 53007  53.2192 314.7048 0001739  95.2915 264.8276 15.08823673 86942,6917.93,95.439,540.998,538.592,0.0
53007.0,STARLINK-4215,PAYLOAD,2024-01-28 22:47:04,15.08826114,0.0001722,53.2191,314.1095,96.562,263.5568,0.00018764,2.698e-05,0.0,0 STARLINK-4215,1 53007U 22076X   24028.94936011  .00002698  00000-0  18764-3 0  9995,2 53007  53.2191 314.1095 0001722  96.5620 263.5568 15.08826114 86499,6917.923,95.438,540.979,538.597,0.0
53007.0,STARLINK-4215,PAYLOAD,2024-01-29 05:08:37,15.08835533,0.0001594,53.2179,312.9162,98.1463,261.971,0.00022722,3.33e-05,0.0,0 STARLINK-4215,1 53007U 22076X   24029.21431777  .00003330  00000-0  22722-3 0  9998,2 53007  53.2179 312.9162 0001594  98.1463 261.9710 15.08835533 87000,6917.894,95.438,540.862,538.656,0.0
53007.0,STARLINK-4215,PAYLOAD,2024-01-30 04:59:23,15.08843053,0.0001667,53.218,308.4561,102.303,257.8149,0.00012489,1.7e-05,0.0,0 STARLINK-4215,1 53007U 22076X   24030.20791582  .00001700  00000-0  12489-3 0  9990,2 53007  53.2180 308.4561 0001667 102.3030 257.8149 15.08843053 86683,6917.871,95.437,540.889,538.583,0.0
